[{"OBJECT_NAME":"FLTSATCOM 8 (USA 46)","OBJECT_ID":"1989-077A","EPOCH":"2026-03-02T19:20:31.176960","MEAN_MOTION":1.0026386,"ECCENTRICITY":0.0008642,"INCLINATION":12.4506,"RA_OF_ASC_NODE":351.7998,"ARG_OF_PERICENTER":334.0092,"MEAN_ANOMALY":250.4423,"EPHEMERIS_TYPE":0,"CLASSIFICATION_TYPE":"U","NORAD_CAT_ID":20253,"ELEMENT_SET_NO":999,"REV_AT_EPOCH":25949,"BSTAR":0,"MEAN_MOTION_DOT":-3.78e-6,"MEAN_MOTION_DDOT":0},{"OBJECT_NAME":"GORIZONT 19","OBJECT_ID":"1989-081A","EPOCH":"2026-03-02T18:44:14.393760","MEAN_MOTION":1.00212868,"ECCENTRICITY":0.0005806,"INCLINATION":12.1918,"RA_OF_ASC_NODE":334.2024,"ARG_OF_PERICENTER":283.2332,"MEAN_ANOMALY":285.2694,"EPHEMERIS_TYPE":0,"CLASSIFICATION_TYPE":"U","NORAD_CAT_ID":20263,"ELEMENT_SET_NO":999,"REV_AT_EPOCH":4627,"BSTAR":0,"MEAN_MOTION_DOT":-3.25e-6,"MEAN_MOTION_DDOT":0},{"OBJECT_NAME":"RADUGA 24","OBJECT_ID":"1989-098A","EPOCH":"2026-03-02T17:59:19.220928","MEAN_MOTION":1.00321116,"ECCENTRICITY":0.0003558,"INCLINATION":12.6193,"RA_OF_ASC_NODE":334.5443,"ARG_OF_PERICENTER":297.4121,"MEAN_ANOMALY":253.6007,"EPHEMERIS_TYPE":0,"CLASSIFICATION_TYPE":"U","NORAD_CAT_ID":20367,"ELEMENT_SET_NO":999,"REV_AT_EPOCH":13190,"BSTAR":0,"MEAN_MOTION_DOT":-3.04e-6,"MEAN_MOTION_DDOT":0},{"OBJECT_NAME":"COSMOS 2054","OBJECT_ID":"1989-101A","EPOCH":"2026-03-02T11:35:31.532640","MEAN_MOTION":1.00238272,"ECCENTRICITY":0.00019492,"INCLINATION":12.3514,"RA_OF_ASC_NODE":334.9807,"ARG_OF_PERICENTER":277.4336,"MEAN_ANOMALY":269.7633,"EPHEMERIS_TYPE":0,"CLASSIFICATION_TYPE":"U","NORAD_CAT_ID":20391,"ELEMENT_SET_NO":999,"REV_AT_EPOCH":13279,"BSTAR":0,"MEAN_MOTION_DOT":5.9e-7,"MEAN_MOTION_DDOT":0},{"OBJECT_NAME":"STTW-4","OBJECT_ID":"1990-011A","EPOCH":"2026-03-02T17:24:37.361952","MEAN_MOTION":1.00318487,"ECCENTRICITY":0.0001701,"INCLINATION":14.2093,"RA_OF_ASC_NODE":347.2203,"ARG_OF_PERICENTER":182.713,"MEAN_ANOMALY":337.4599,"EPHEMERIS_TYPE":0,"CLASSIFICATION_TYPE":"U","NORAD_CAT_ID":20473,"ELEMENT_SET_NO":999,"REV_AT_EPOCH":13197,"BSTAR":0,"MEAN_MOTION_DOT":-2.29e-6,"MEAN_MOTION_DDOT":0},{"OBJECT_NAME":"RADUGA 25","OBJECT_ID":"1990-016A","EPOCH":"2026-03-02T05:23:07.161216","MEAN_MOTION":1.00217628,"ECCENTRICITY":0.00046345,"INCLINATION":12.4328,"RA_OF_ASC_NODE":335.4286,"ARG_OF_PERICENTER":229.1889,"MEAN_ANOMALY":348.7205,"EPHEMERIS_TYPE":0,"CLASSIFICATION_TYPE":"U","NORAD_CAT_ID":20499,"ELEMENT_SET_NO":999,"REV_AT_EPOCH":13183,"BSTAR":0,"MEAN_MOTION_DOT":-3.07e-6,"MEAN_MOTION_DDOT":0},{"OBJECT_NAME":"INSAT-1D","OBJECT_ID":"1990-051A","EPOCH":"2026-03-02T10:54:51.586272","MEAN_MOTION":1.00282499,"ECCENTRICITY":0.0015202,"INCLINATION":14.622,"RA_OF_ASC_NODE":354.7821,"ARG_OF_PERICENTER":198.1499,"MEAN_ANOMALY":210.9679,"EPHEMERIS_TYPE":0,"CLASSIFICATION_TYPE":"U","NORAD_CAT_ID":20643,"ELEMENT_SET_NO":999,"REV_AT_EPOCH":11768,"BSTAR":0,"MEAN_MOTION_DOT":-1.69e-6,"MEAN_MOTION_DDOT":0},{"OBJECT_NAME":"GORIZONT 20","OBJECT_ID":"1990-054A","EPOCH":"2026-03-02T15:43:35.791104","MEAN_MOTION":1.00308389,"ECCENTRICITY":0.0006227,"INCLINATION":12.7848,"RA_OF_ASC_NODE":336.8124,"ARG_OF_PERICENTER":246.0131,"MEAN_ANOMALY":233.4372,"EPHEMERIS_TYPE":0,"CLASSIFICATION_TYPE":"U","NORAD_CAT_ID":20659,"ELEMENT_SET_NO":999,"REV_AT_EPOCH":13062,"BSTAR":0,"MEAN_MOTION_DOT":1.0e-7,"MEAN_MOTION_DDOT":0},{"OBJECT_NAME":"SL-12 R/B(2)","OBJECT_ID":"1990-054D","EPOCH":"2026-03-01T20:14:50.483904","MEAN_MOTION":1.00514805,"ECCENTRICITY":0.0013191,"INCLINATION":12.6294,"RA_OF_ASC_NODE":336.2356,"ARG_OF_PERICENTER":98.691,"MEAN_ANOMALY":261.4823,"EPHEMERIS_TYPE":0,"CLASSIFICATION_TYPE":"U","NORAD_CAT_ID":20662,"ELEMENT_SET_NO":999,"REV_AT_EPOCH":13071,"BSTAR":0,"MEAN_MOTION_DOT":-1.8e-7,"MEAN_MOTION_DDOT":0},{"OBJECT_NAME":"COSMOS 2085","OBJECT_ID":"1990-061A","EPOCH":"2026-03-02T20:10:38.498304","MEAN_MOTION":1.00261111,"ECCENTRICITY":0.0013795,"INCLINATION":12.772,"RA_OF_ASC_NODE":337.2326,"ARG_OF_PERICENTER":26.9004,"MEAN_ANOMALY":172.9523,"EPHEMERIS_TYPE":0,"CLASSIFICATION_TYPE":"U","NORAD_CAT_ID":20693,"ELEMENT_SET_NO":999,"REV_AT_EPOCH":13043,"BSTAR":0,"MEAN_MOTION_DOT":-1.03e-6,"MEAN_MOTION_DDOT":0},{"OBJECT_NAME":"SL-12 R/B(2)","OBJECT_ID":"1990-061D","EPOCH":"2026-03-02T16:22:03.053856","MEAN_MOTION":1.00322644,"ECCENTRICITY":0.0032025,"INCLINATION":12.7391,"RA_OF_ASC_NODE":337.1076,"ARG_OF_PERICENTER":218.048,"MEAN_ANOMALY":324.9416,"EPHEMERIS_TYPE":0,"CLASSIFICATION_TYPE":"U","NORAD_CAT_ID":20696,"ELEMENT_SET_NO":999,"REV_AT_EPOCH":12933,"BSTAR":0,"MEAN_MOTION_DOT":-3.84e-6,"MEAN_MOTION_DDOT":0},{"OBJECT_NAME":"SKYNET 4C","OBJECT_ID":"1990-079A","EPOCH":"2026-03-01T23:00:38.549664","MEAN_MOTION":1.00269458,"ECCENTRICITY":0.00041471,"INCLINATION":13.3727,"RA_OF_ASC_NODE":350.5447,"ARG_OF_PERICENTER":329.6657,"MEAN_ANOMALY":218.0745,"EPHEMERIS_TYPE":0,"CLASSIFICATION_TYPE":"U","NORAD_CAT_ID":20776,"ELEMENT_SET_NO":999,"REV_AT_EPOCH":12981,"BSTAR":0,"MEAN_MOTION_DOT":1.16e-6,"MEAN_MOTION_DDOT":0},{"OBJECT_NAME":"SL-12 R/B(2)","OBJECT_ID":"1974-060F","EPOCH":"2026-03-02T18:22:38.635680","MEAN_MOTION":1.00325811,"ECCENTRICITY":0.0014423,"INCLINATION":1.6261,"RA_OF_ASC_NODE":253.4059,"ARG_OF_PERICENTER":224.2173,"MEAN_ANOMALY":70.0034,"EPHEMERIS_TYPE":0,"CLASSIFICATION_TYPE":"U","NORAD_CAT_ID":20836,"ELEMENT_SET_NO":999,"REV_AT_EPOCH":4493,"BSTAR":0,"MEAN_MOTION_DOT":-3.75e-6,"MEAN_MOTION_DDOT":0},{"OBJECT_NAME":"GALAXY 6 (G-6)","OBJECT_ID":"1990-091B","EPOCH":"2026-03-02T11:39:38.678112","MEAN_MOTION":0.99755986,"ECCENTRICITY":0.0005935,"INCLINATION":13.9548,"RA_OF_ASC_NODE":10.7969,"ARG_OF_PERICENTER":257.2919,"MEAN_ANOMALY":310.8587,"EPHEMERIS_TYPE":0,"CLASSIFICATION_TYPE":"U","NORAD_CAT_ID":20873,"ELEMENT_SET_NO":999,"REV_AT_EPOCH":4538,"BSTAR":0,"MEAN_MOTION_DOT":9.0e-8,"MEAN_MOTION_DDOT":0},{"OBJECT_NAME":"GORIZONT 21","OBJECT_ID":"1990-094A","EPOCH":"2026-03-02T14:46:04.753920","MEAN_MOTION":1.0023047,"ECCENTRICITY":0.00073,"INCLINATION":12.8375,"RA_OF_ASC_NODE":337.5116,"ARG_OF_PERICENTER":270.5973,"MEAN_ANOMALY":271.133,"EPHEMERIS_TYPE":0,"CLASSIFICATION_TYPE":"U","NORAD_CAT_ID":20923,"ELEMENT_SET_NO":999,"REV_AT_EPOCH":12938,"BSTAR":0,"MEAN_MOTION_DOT":-3.28e-6,"MEAN_MOTION_DDOT":0},{"OBJECT_NAME":"GORIZONT 22","OBJECT_ID":"1990-102A","EPOCH":"2026-03-02T19:08:45.811680","MEAN_MOTION":1.00302577,"ECCENTRICITY":0.0004913,"INCLINATION":12.824,"RA_OF_ASC_NODE":337.9854,"ARG_OF_PERICENTER":342.7227,"MEAN_ANOMALY":263.5096,"EPHEMERIS_TYPE":0,"CLASSIFICATION_TYPE":"U","NORAD_CAT_ID":20953,"ELEMENT_SET_NO":999,"REV_AT_EPOCH":12930,"BSTAR":0,"MEAN_MOTION_DOT":-3.24e-6,"MEAN_MOTION_DDOT":0},{"OBJECT_NAME":"RADUGA 26","OBJECT_ID":"1990-112A","EPOCH":"2026-03-02T15:47:06.905184","MEAN_MOTION":1.0022643,"ECCENTRICITY":0.0002691,"INCLINATION":12.9301,"RA_OF_ASC_NODE":338.6515,"ARG_OF_PERICENTER":108.325,"MEAN_ANOMALY":17.029,"EPHEMERIS_TYPE":0,"CLASSIFICATION_TYPE":"U","NORAD_CAT_ID":21016,"ELEMENT_SET_NO":999,"REV_AT_EPOCH":12919,"BSTAR":0,"MEAN_MOTION_DOT":-3.2e-7,"MEAN_MOTION_DDOT":0},{"OBJECT_NAME":"SL-12 R/B(2)","OBJECT_ID":"1990-112D","EPOCH":"2026-03-02T06:04:42.229920","MEAN_MOTION":1.00014826,"ECCENTRICITY":0.00247261,"INCLINATION":12.9909,"RA_OF_ASC_NODE":338.8264,"ARG_OF_PERICENTER":182.0664,"MEAN_ANOMALY":4.5116,"EPHEMERIS_TYPE":0,"CLASSIFICATION_TYPE":"U","NORAD_CAT_ID":21019,"ELEMENT_SET_NO":999,"REV_AT_EPOCH":11886,"BSTAR":0,"MEAN_MOTION_DOT":-1.99e-6,"MEAN_MOTION_DDOT":0},{"OBJECT_NAME":"RADUGA-1 2","OBJECT_ID":"1990-116A","EPOCH":"2026-03-02T17:59:56.659776","MEAN_MOTION":1.00242573,"ECCENTRICITY":0.0003472,"INCLINATION":12.9721,"RA_OF_ASC_NODE":338.6782,"ARG_OF_PERICENTER":135.7733,"MEAN_ANOMALY":52.9959,"EPHEMERIS_TYPE":0,"CLASSIFICATION_TYPE":"U","NORAD_CAT_ID":21038,"ELEMENT_SET_NO":999,"REV_AT_EPOCH":4627,"BSTAR":0,"MEAN_MOTION_DOT":-3.03e-6,"MEAN_MOTION_DDOT":0},{"OBJECT_NAME":"ITALSAT 1","OBJECT_ID":"1991-003A","EPOCH":"2026-03-02T02:56:38.618016","MEAN_MOTION":0.99974929,"ECCENTRICITY":0.00127307,"INCLINATION":14.5757,"RA_OF_ASC_NODE":352.317,"ARG_OF_PERICENTER":40.2758,"MEAN_ANOMALY":148.1459,"EPHEMERIS_TYPE":0,"CLASSIFICATION_TYPE":"U","NORAD_CAT_ID":21055,"ELEMENT_SET_NO":999,"REV_AT_EPOCH":11601,"BSTAR":0,"MEAN_MOTION_DOT":-2.46e-6,"MEAN_MOTION_DDOT":0},{"OBJECT_NAME":"COSMOS 2133","OBJECT_ID":"1991-010A","EPOCH":"2026-03-02T19:06:21.763008","MEAN_MOTION":1.00276506,"ECCENTRICITY":0.0003233,"INCLINATION":13.3153,"RA_OF_ASC_NODE":343.5077,"ARG_OF_PERICENTER":221.4702,"MEAN_ANOMALY":322.4889,"EPHEMERIS_TYPE":0,"CLASSIFICATION_TYPE":"U","NORAD_CAT_ID":21111,"ELEMENT_SET_NO":999,"REV_AT_EPOCH":12837,"BSTAR":0,"MEAN_MOTION_DOT":-1.69e-6,"MEAN_MOTION_DDOT":0},{"OBJECT_NAME":"SL-12 R/B(2)","OBJECT_ID":"1991-010F","EPOCH":"2026-03-02T11:17:06.404928","MEAN_MOTION":1.00113824,"ECCENTRICITY":0.00172552,"INCLINATION":13.2253,"RA_OF_ASC_NODE":343.1108,"ARG_OF_PERICENTER":232.6368,"MEAN_ANOMALY":335.2409,"EPHEMERIS_TYPE":0,"CLASSIFICATION_TYPE":"U","NORAD_CAT_ID":21129,"ELEMENT_SET_NO":999,"REV_AT_EPOCH":12860,"BSTAR":0,"MEAN_MOTION_DOT":7.6e-7,"MEAN_MOTION_DDOT":0},{"OBJECT_NAME":"RADUGA 27","OBJECT_ID":"1991-014A","EPOCH":"2026-03-02T14:52:31.474272","MEAN_MOTION":1.00378291,"ECCENTRICITY":0.0001948,"INCLINATION":13.4399,"RA_OF_ASC_NODE":337.659,"ARG_OF_PERICENTER":323.6867,"MEAN_ANOMALY":151.6505,"EPHEMERIS_TYPE":0,"CLASSIFICATION_TYPE":"U","NORAD_CAT_ID":21132,"ELEMENT_SET_NO":999,"REV_AT_EPOCH":12824,"BSTAR":0,"MEAN_MOTION_DOT":-8.8e-7,"MEAN_MOTION_DDOT":0},{"OBJECT_NAME":"TDRS 5","OBJECT_ID":"1991-054B","EPOCH":"2026-03-02T13:08:38.512608","MEAN_MOTION":1.00265486,"ECCENTRICITY":0.0011089,"INCLINATION":14.0843,"RA_OF_ASC_NODE":354.567,"ARG_OF_PERICENTER":277.1432,"MEAN_ANOMALY":278.2866,"EPHEMERIS_TYPE":0,"CLASSIFICATION_TYPE":"U","NORAD_CAT_ID":21639,"ELEMENT_SET_NO":999,"REV_AT_EPOCH":12664,"BSTAR":0,"MEAN_MOTION_DOT":7.4e-7,"MEAN_MOTION_DDOT":0}]
